CYGNUS NG-23            
1 65616U 25208A   26007.85496262  .00008201  00000+0  15591-3 0  9992
2 65616  51.6332  13.1773 0007624 352.7234   7.3643 15.49160932   220
DRAGONFLY               
1 65729U 98067XH  26007.27563822  .00306648  00000+0  12894-2 0  9991
2 65729  51.6233   4.0046 0008576  65.0899 295.0995 15.84068835 17193
1998-067XK              
1 65731U 98067XK  26007.21988973  .00123601  00000+0  92214-3 0  9997
2 65731  51.6286   7.4337 0005063  39.6016 320.5351 15.71835382 17140
RSP-03                  
1 65732U 98067XL  26008.17601304  .00184575  00000+0  10693-2 0  9991
2 65732  51.6257   1.0430 0006243  52.4563 307.7004 15.77459056 17322
GHS-01                  
1 65733U 98067XM  26007.34016378  .00508707  11219-3  14807-2 0  9997
2 65733  51.6249   2.1848 0009122  72.4376 287.7626 15.92234495 17234
YOTSUBA-KULOVER         
1 65941U 98067XN  26007.95376684  .00076700  00000+0  80288-3 0  9996
2 65941  51.6291   7.8415 0003902  70.4070 289.7346 15.63732803 13953
BOTAN                   
1 65942U 98067XP  26007.94657461  .00137610  00000+0  11163-2 0  9994
2 65942  51.6269   6.2860 0004677  64.0992 296.0487 15.69784630 13978
E-KAGAKU-1              
1 65943U 98067XQ  26007.25065983  .00074361  00000+0  78199-3 0  9997
2 65943  51.6305  11.4021 0002412  61.6805 298.4433 15.63633295 13845
HRC MONOBLOCK CAMERA    
1 66052U 98067XR  26008.19110296  .00034654  00000+0  48989-3 0  9996
2 66052  51.6311   9.4243 0001238 331.8212  28.2713 15.56196674 12954
HTV-X1                  
1 66174U 25241A   26007.85496262  .00008201  00000+0  15591-3 0  9999
2 66174  51.6332  13.1773 0007624 352.7234   7.3643 15.49160932   512
SZ-21 MODULE            
1 66515U 25246C   26007.86050997  .00025291  00000+0  26192-3 0  9992
2 66515  41.4742 216.5245 0001494  84.1343 275.9668 15.64106684  8533
SHENZHOU-22             
1 66645U 25272A   26007.96709416  .00010176  00000+0  12467-3 0  9999
2 66645  41.4652 217.3492 0011171 241.5803 118.3910 15.60266689267493
